PERSEUS-M1              
1 40039U 14033AF  26132.10793095  .00001144  00000+0  10866-3 0  9998
2 40039  97.9626  75.6560 0012865  61.0721 299.1788 14.95506048645242
POLYITAN-1              
1 40042U 14033AJ  26132.01164994  .00011526  00000+0  37566-3 0  9993
2 40042  98.0977 154.8860 0005363 270.7833  89.2792 15.31997831648058
TIGRISAT                
1 40043U 14033AK  26132.13598216  .00001479  00000+0  17608-3 0  9996
2 40043  97.7789 282.9872 0049212 191.3333 168.6778 14.85004931640276
AEROCUBE 6A             
1 40045U 14033AM  26132.01727194  .00004724  00000+0  40163-3 0  9992
2 40045  97.7213 299.3688 0040228 134.9160 225.5338 14.97700222641204
AEROCUBE 6B             
1 40046U 14033AN  26132.18791075  .00004023  00000+0  33101-3 0  9996
2 40046  97.7173 299.2558 0037870 127.8425 232.6234 14.99123870641360
CANX-4                  
1 40055U 14034C   26132.07900125  .00000512  00000+0  73067-4 0  9998
2 40055  98.3172   6.0596 0013857 123.8085 236.4448 14.81196017639189
CANX-5                  
1 40056U 14034D   26132.07785101  .00000508  00000+0  72527-4 0  9999
2 40056  98.3173   6.0997 0013848 124.0358 236.2170 14.81213016629999
UKUBE-1                 
1 40074U 14037F   26131.93204556  .00005087  00000+0  29285-3 0  9995
2 40074  98.4249 131.4144 0000480  53.7826 306.3447 15.12964849643070
BRITE-PL2 (HEWELIUSZ)   
1 40119U 14049B   26131.88409028  .00000790  00000+0  78661-4 0  9992
2 40119  97.9056 243.6164 0013037 226.1248 133.8896 14.94455446636029
AEROCUBE 5C             
1 40965U 15058B   26132.09381600  .00001950  00000+0  18174-3 0  9992
2 40965  64.7691  14.8570 0129780  77.4621 284.0972 14.91244809360270
AEROCUBE 7              
1 40966U 15058C   26132.05859563  .00002799  00000+0  23301-3 0  9997
2 40966  64.7636 357.9541 0119551  76.1742 285.2641 14.95439863360551
FOX-1A (AO-85)          
1 40967U 15058D   26132.06250894  .00002101  00000+0  19751-3 0  9992
2 40967  64.7768  31.2284 0128946  70.7546 290.7464 14.90752582108188
SINOD-D 1               
1 40968U 15058E   26132.04085309  .00002917  00000+0  24226-3 0  9996
2 40968  64.7770  12.0834 0117423  67.5591 293.7910 14.95618001111255
SNAP-3 ALICE            
1 40970U 15058G   26131.54256510  .00053534  00000+0  82454-3 0  9995
2 40970  64.7531 229.8456 0032701  31.6012 328.7085 15.53252455111182
LMRST-SAT               
1 40971U 15058H   26132.07579918  .00002077  00000+0  19653-3 0  9992
2 40971  64.7775  27.4575 0130726  72.7766 288.7606 14.90378102108172
SNAP-3 EDDIE            
1 40972U 15058J   26131.94648544  .00056012  00000+0  82496-3 0  9993
2 40972  64.7451 219.4469 0033183  34.9650 325.3663 15.54440501113384
PROPCUBE 3              
1 40973U 15058K   26132.06567065  .00002448  00000+0  21193-3 0  9997
2 40973  64.7702   5.3715 0122917  74.2976 287.1657 14.94006584109400
BISONSAT                
1 40974U 15058L   26131.81230443  .00007877  00000+0  39334-3 0  9994
2 40974  64.7596 291.1714 0078693  63.0474 297.8660 15.15447122110108
SNAP-3 JIMI             
1 40975U 15058M   26131.90457192  .00003875  00000+0  27516-3 0  9990
2 40975  64.7662 334.5350 0104891  70.4061 290.8344 15.01921190108774
PROPCUBE 1 (FLORA)      
1 40976U 15058N   26132.13184656  .00001935  00000+0  19124-3 0  9990
2 40976  64.7758  46.9618 0129540  75.0312 286.5097 14.89012344110890
SINOD-D 3               
1 40977U 15058P   26132.09111363  .00002682  00000+0  23494-3 0  9996
2 40977  64.7740  28.5110 0118036  72.5572 288.8404 14.93734232109362
HORYU-4                 
1 41340U 16012D   26131.66552011  .00123350  00000+0  69385-3 0  9998
2 41340  30.9894 342.9931 0005642  13.7022 346.3788 15.77715483565014
RAVAN                   
1 41849U 16067B   26132.08714919  .00030766  00000+0  52311-3 0  9995
2 41849  97.9943  17.5857 0007214 122.2694 237.9257 15.51365510522097
CELTEE 1                
1 41850U 16067C   26132.05382507  .00003086  00000+0  14983-3 0  9996
2 41850  98.0723 356.1584 0001842  60.3871 299.7545 15.19318741520391
OPTICUBE 04             
1 41851U 16067D   26132.02006211  .00001156  00000+0  76478-4 0  9993
2 41851  98.0738 342.4139 0014417 237.4226 122.5610 15.09502308519718
AEROCUBE 8D             
1 41852U 16067E   26132.17779705  .00004657  00000+0  19631-3 0  9991
2 41852  98.0736 359.6163 0001919 251.1173 108.9854 15.23884204520580
AEROCUBE 8C             
1 41853U 16067F   26132.07720626  .00004406  00000+0  18458-3 0  9997
2 41853  98.0607 356.7831 0005439 169.9977 190.1368 15.24121164520568
CORVUS BC2              
1 42846U 17042X   26132.18676207  .00002305  00000+0  16172-3 0  9998
2 42846  97.4038 294.9505 0011924 230.6846 129.3325 15.06063142481643
CORVUS BC1              
1 42847U 17042Y   26132.18546146  .00002283  00000+0  15951-3 0  9996
2 42847  97.4071 295.7397 0011253 204.4002 155.6695 15.06235198481674
MAKERSAT 0              
1 43016U 17073D   26132.17512071  .00015764  00000+0  44167-3 0  9997
2 43016  97.4681  14.4471 0111835  41.9670 319.0072 15.30547279460957
